GLOBALSTAR M067         
1 32263U 07048A   25196.60006444 -.00000108  00000+0 -78808-4 0  9997
2 32263  51.9747 312.7952 0001365  73.8373 299.8789 12.40674031813019
GLOBALSTAR M070         
1 32264U 07048B   25196.55231873 -.00000093  00000+0  57752-4 0  9995
2 32264  51.9762  42.0916 0000803  88.0532 293.5744 12.62320138817253
GLOBALSTAR M066         
1 32265U 07048C   25196.04115972 -.00000076  00000+0  16016-3 0  9999
2 32265  51.9646 305.7122 0004250  38.5240 132.6216 12.29967757818726
GLOBALSTAR M068         
1 32266U 07048D   25196.31834186 -.00000105  00000+0 -60368-5 0  9990
2 32266  51.9858 216.5044 0001100 194.3533 182.8875 12.62826410821113
GLOBALSTAR M079         
1 37188U 10054A   25196.39061360 -.00000101  00000+0  17419-4 0  9996
2 37188  52.0047  53.9303 0000905  54.1662 117.3968 12.62265488680012
GLOBALSTAR M074         
1 37189U 10054B   25196.62465522 -.00000099  00000+0  25849-4 0  9993
2 37189  52.0028  52.5383 0000962  74.7791 319.1490 12.62266640680652
GLOBALSTAR M076         
1 37190U 10054C   25196.57138522 -.00000092  00000+0  65139-4 0  9995
2 37190  52.0039  52.8722 0001058  65.4032 327.2473 12.62263581680368
GLOBALSTAR M077         
1 37191U 10054D   25196.56039037 -.00000105  00000+0 -64526-5 0  9992
2 37191  52.0089   9.7699 0000882  90.0983 313.0405 12.62268879680735
